From: horizons@ssd.jpl.nasa.gov (Horizons Ephemeris System)
Subject: [Horizons] SMALL BODY #C(500@399)_T(Pimentel (P/2020 G1)) (1/1)
Date: January 29, 2021 at 4:05:41 PM PST

Automated mail xmit by PORT_LOGIN, PID= 12929 Fri Jan 29 16:05:41 2021
++++++++++++++++++++++++++++++++ (part 1 of 1)  +++++++++++++++++++++++++++++++
*******************************************************************************
Ephemeris / PORT_LOGIN Fri Jan 29 16:05:05 2021 Pasadena, USA    / Horizons
*******************************************************************************
Target body name: Pimentel (P/2020 G1)            {source: JPL#10}
Center body name: Earth (399)                     {source: DE431}
Center-site name: BODY CENTER
*******************************************************************************
Start time      : A.D. 2033-Mar-21 06:38:57.0000 TDB
Stop  time      : A.D. 2034-Mar-21 06:38:57.0000 TDB
Step-size       : 10080 minutes
*******************************************************************************
Center geodetic : 0.00000000,0.00000000,0.0000000 {E-lon(deg),Lat(deg),Alt(km)}
Center cylindric: 0.00000000,0.00000000,0.0000000 {E-lon(deg),Dxy(km),Dz(km)}
Center radii    : 6378.1 x 6378.1 x 6356.8 km     {Equator, meridian, pole}    
Small perturbers: Yes                             {source: SB431-N16}
Output units    : AU-D
Output type     : GEOMETRIC cartesian states
Output format   : 6 (LT, range, and range-rate)
EOP file        : eop.210129.p210422
EOP coverage    : DATA-BASED 1962-JAN-20 TO 2021-JAN-29. PREDICTS-> 2021-APR-21
Reference frame : Ecliptic of J2000.0
*******************************************************************************
Initial IAU76/J2000 heliocentric ecliptic osculating elements (au, days, deg.):
 EPOCH=  2458973.5 ! 2020-May-04.0000000 (TDB)    RMSW= n.a.                  
  EC= .8596115503033973   QR= .5057638781143701   TP= 2458925.9077765499      
  OM= 240.1054960744947   W= 207.6375917210323    IN= 18.47273224337517       
 Equivalent ICRF heliocentric equatorial cartesian coordinates (au, au/d):
  X=-1.032064912484713E+00  Y=-1.821823513620963E-02  Z=-3.083902466397141E-01
 VX=-1.317242841172473E-02 VY=-1.531432020824755E-02 VZ=-7.692510893251410E-03
Comet physical (GM= km^3/s^2; RAD= km):                                        
  GM= n.a.                RAD= n.a.                                           
  M1=  17.4     M2=  18.5     k1=  4.5    k2=  5.      PHCOF=  .030           
*******************************************************************************
           JDTDB,            Calendar Date (TDB),                     LT,                     RG,                     RR,
**************************************************************************************************************************
$$SOE
2463677.777048611, A.D. 2033-Mar-21 06:38:57.0000,  2.135151833725327E-02,  3.696900799541025E+00, -1.920263620618382E-02,
2463684.777048611, A.D. 2033-Mar-28 06:38:57.0000,  2.055746667228535E-02,  3.559415015685784E+00, -2.006412324821970E-02,
2463691.777048611, A.D. 2033-Apr-04 06:38:57.0000,  1.973061852049418E-02,  3.416250696166528E+00, -2.081964332904949E-02,
2463698.777048611, A.D. 2033-Apr-11 06:38:57.0000,  1.887564624432927E-02,  3.268216835463297E+00, -2.145750204977570E-02,
2463705.777048611, A.D. 2033-Apr-18 06:38:57.0000,  1.799699609746765E-02,  3.116083278535773E+00, -2.199324594036696E-02,
2463712.777048611, A.D. 2033-Apr-25 06:38:57.0000,  1.709860764907894E-02,  2.960532140640730E+00, -2.243341432140598E-02,
2463719.777048611, A.D. 2033-May-02 06:38:57.0000,  1.618462916329963E-02,  2.802281671448312E+00, -2.275966124444203E-02,
2463726.777048611, A.D. 2033-May-09 06:38:57.0000,  1.525999631914494E-02,  2.642186457288610E+00, -2.296285989383020E-02,
2463733.777048611, A.D. 2033-May-16 06:38:57.0000,  1.432933145008741E-02,  2.481046830392824E+00, -2.306071894473068E-02,
2463740.777048611, A.D. 2033-May-23 06:38:57.0000,  1.339665867067162E-02,  2.319559544595615E+00, -2.306180066269594E-02,
2463747.777048611, A.D. 2033-May-30 06:38:57.0000,  1.246615485619127E-02,  2.158447803435435E+00, -2.294913989412181E-02,
2463754.777048611, A.D. 2033-Jun-06 06:38:57.0000,  1.154269261544122E-02,  1.998555272972237E+00, -2.271595164574892E-02,
2463761.777048611, A.D. 2033-Jun-13 06:38:57.0000,  1.063077223104408E-02,  1.840661152987641E+00, -2.238110242832280E-02,
2463768.777048611, A.D. 2033-Jun-20 06:38:57.0000,  9.734235037693054E-03,  1.685430549966084E+00, -2.195461625127412E-02,
2463775.777048611, A.D. 2033-Jun-27 06:38:57.0000,  8.857043632597416E-03,  1.533549566345799E+00, -2.142032828638389E-02,
2463782.777048611, A.D. 2033-Jul-04 06:38:57.0000,  8.003762927967419E-03,  1.385808592174621E+00, -2.077441167081563E-02,
2463789.777048611, A.D. 2033-Jul-11 06:38:57.0000,  7.178518668373224E-03,  1.242921977980658E+00, -2.003648073062516E-02,
2463796.777048611, A.D. 2033-Jul-18 06:38:57.0000,  6.384743731238687E-03,  1.105484108064481E+00, -1.921722083193302E-02,
2463803.777048611, A.D. 2033-Jul-25 06:38:57.0000,  5.625995354418994E-03,  9.741108990678592E-01, -1.830034885831058E-02,
2463810.777048611, A.D. 2033-Aug-01 06:38:57.0000,  4.906388727670215E-03,  8.495148740094929E-01, -1.728301472482145E-02,
2463817.777048611, A.D. 2033-Aug-08 06:38:57.0000,  4.229726797982740E-03,  7.323544927491124E-01, -1.617680939634292E-02,
2463824.777048611, A.D. 2033-Aug-15 06:38:57.0000,  3.599696580977639E-03,  6.232681422520921E-01, -1.497021435443470E-02,
2463831.777048611, A.D. 2033-Aug-22 06:38:57.0000,  3.021502220182931E-03,  5.231568920379754E-01, -1.359771299808216E-02,
2463838.777048611, A.D. 2033-Aug-29 06:38:57.0000,  2.503956452175483E-03,  4.335466201442180E-01, -1.194362068684348E-02,
2463845.777048611, A.D. 2033-Sep-05 06:38:57.0000,  2.062872633486770E-03,  3.571753243788096E-01, -9.753189469015294E-03,
2463852.777048611, A.D. 2033-Sep-12 06:38:57.0000,  1.729469532266805E-03,  2.994483668856262E-01, -6.507889863979007E-03,
2463859.777048611, A.D. 2033-Sep-19 06:38:57.0000,  1.558807690253230E-03,  2.698991849386764E-01, -1.656310554654281E-03,
2463866.777048611, A.D. 2033-Sep-26 06:38:57.0000,  1.611576843535262E-03,  2.790358806002247E-01,  4.337403564581969E-03,
2463873.777048611, A.D. 2033-Oct-03 06:38:57.0000,  1.905236872292832E-03,  3.298815384105609E-01,  1.006287272759779E-02,
2463880.777048611, A.D. 2033-Oct-10 06:38:57.0000,  2.415076345688029E-03,  4.181575067544006E-01,  1.505810763136838E-02,
2463887.777048611, A.D. 2033-Oct-17 06:38:57.0000,  3.115890453924061E-03,  5.394997080978537E-01,  1.951425287243912E-02,
2463894.777048611, A.D. 2033-Oct-24 06:38:57.0000,  3.979561048706871E-03,  6.890396359830659E-01,  2.294126491193823E-02,
2463901.777048611, A.D. 2033-Oct-31 06:38:57.0000,  4.939968128940191E-03,  8.553289671078037E-01,  2.411799908920584E-02,
2463908.777048611, A.D. 2033-Nov-07 06:38:57.0000,  5.896035033059415E-03,  1.020866820033525E+00,  2.285869562140609E-02,
2463915.777048611, A.D. 2033-Nov-14 06:38:57.0000,  6.772382524179296E-03,  1.172601684478469E+00,  2.040504771768041E-02,
2463922.777048611, A.D. 2033-Nov-21 06:38:57.0000,  7.544080933443943E-03,  1.306217122085892E+00,  1.778862684188159E-02,
2463929.777048611, A.D. 2033-Nov-28 06:38:57.0000,  8.213423011446681E-03,  1.422110110315088E+00,  1.536341203174717E-02,
2463936.777048611, A.D. 2033-Dec-05 06:38:57.0000,  8.789437561122163E-03,  1.521843937933668E+00,  1.316622324818879E-02,
2463943.777048611, A.D. 2033-Dec-12 06:38:57.0000,  9.280255447696999E-03,  1.606826420614615E+00,  1.113699929419078E-02,
2463950.777048611, A.D. 2033-Dec-19 06:38:57.0000,  9.691569590949722E-03,  1.678043256861828E+00,  9.229291245165352E-03,
2463957.777048611, A.D. 2033-Dec-26 06:38:57.0000,  1.002798287437636E-02,  1.736291411247467E+00,  7.431479270135468E-03,
2463964.777048611, A.D. 2034-Jan-02 06:38:57.0000,  1.029394443662543E-02,  1.782341228248549E+00,  5.742805038132933E-03,
2463971.777048611, A.D. 2034-Jan-09 06:38:57.0000,  1.049353379887661E-02,  1.816899055061217E+00,  4.144339091753170E-03,
2463978.777048611, A.D. 2034-Jan-16 06:38:57.0000,  1.063021730072207E-02,  1.840565069780878E+00,  2.633727622163931E-03,
2463985.777048611, A.D. 2034-Jan-23 06:38:57.0000,  1.070801729367670E-02,  1.854035720983064E+00,  1.236965164416827E-03,
2463992.777048611, A.D. 2034-Jan-30 06:38:57.0000,  1.073218853690833E-02,  1.858220842013686E+00, -1.648282574416516E-05,
2463999.777048611, A.D. 2034-Feb-06 06:38:57.0000,  1.070863738153979E-02,  1.854143085868347E+00, -1.124167054663890E-03,
2464006.777048611, A.D. 2034-Feb-13 06:38:57.0000,  1.064346057158163E-02,  1.842858071049262E+00, -2.070044898064193E-03,
2464013.777048611, A.D. 2034-Feb-20 06:38:57.0000,  1.054401267781264E-02,  1.825639202012403E+00, -2.811084508199073E-03,
2464020.777048611, A.D. 2034-Feb-27 06:38:57.0000,  1.041955535711008E-02,  1.804090084935739E+00, -3.302602430802373E-03,
2464027.777048611, A.D. 2034-Mar-06 06:38:57.0000,  1.028048986762141E-02,  1.780011641840559E+00, -3.532108620220539E-03,
2464034.777048611, A.D. 2034-Mar-13 06:38:57.0000,  1.013783942127128E-02,  1.755312482706449E+00, -3.473004004246972E-03,
2464041.777048611, A.D. 2034-Mar-20 06:38:57.0000,  1.000419444694331E-02,  1.732172572717675E+00, -3.078252680788581E-03,
$$EOE
**************************************************************************************************************************
Coordinate system description:

 Ecliptic at the standard reference epoch

   Reference epoch: J2000.0
   X-Y plane: adopted Earth orbital plane at the reference epoch
              Note: obliquity of 84381.448 arcseconds (IAU76) wrt ICRF equator
   X-axis   : ICRF
   Z-axis   : perpendicular to the X-Y plane in the directional (+ or -) sense
              of Earth's north pole at the reference epoch.

 Symbol meaning [1 au= 149597870.700 km, 1 day= 86400.0 s]:

   JDTDB    Julian Day Number, Barycentric Dynamical Time
     LT     One-way down-leg Newtonian light-time (day)
     RG     Range; distance from coordinate center (au)
     RR     Range-rate; radial velocity wrt coord. center (au/day)

Geometric states/elements have no aberrations applied.


Computations by ...
    Solar System Dynamics Group, Horizons On-Line Ephemeris System
    4800 Oak Grove Drive, Jet Propulsion Laboratory
    Pasadena, CA  91109   USA
    Information  : https://ssd.jpl.nasa.gov/
    Documentation: https://ssd.jpl.nasa.gov/?horizons_doc
    Connect      : https://ssd.jpl.nasa.gov/?horizons (browser)
                   telnet ssd.jpl.nasa.gov 6775       (command-line)
                   e-mail command interface available
                   Script and CGI interfaces available
    Author       : Jon.D.Giorgini@jpl.nasa.gov
*******************************************************************************
